[Satellite]
VERSION=1.1
NAME=NIGCOMSAT 1
NICKNAME=NIGCOMSAT 1
TLE1=1 31395U 07018A   11057.65743612  .00000126  00000-0  10000-3 0  7222
TLE2=2 31395   2.1101  73.9834 0004474 314.9254  45.4554  1.00257890 14025
